0 FENGYUN 1C DEB
1 30275U 99025YL  13282.54014346  .00002113  00000-0  10709-2 0  6033
2 30275 098.9608 297.7586 0060328 114.3005 036.7330 14.16191791347585
0 FENGYUN 1C DEB
1 30275U 99025YL  13283.72256201  .00002761  00000-0  13923-2 0  6043
2 30275 098.9612 298.9476 0060317 110.9255 305.0617 14.16192993347752
0 FENGYUN 1C DEB
1 30275U 99025YL  13285.29112617  .00002215  00000-0  11212-2 0  6053
2 30275 098.9610 300.5261 0060299 106.5564 021.9931 14.16200410347976
0 FENGYUN 1C DEB
1 30275U 99025YL  13286.76084854  .00002232  00000-0  11297-2 0  6060
2 30275 098.9603 302.0052 0060256 102.4552 315.0535 14.16206839348180
0 FENGYUN 1C DEB
1 30275U 99025YL  13288.73965770  .00003019  00000-0  15197-2 0  6072
2 30275 098.9596 303.9963 0060171 096.9513 323.6258 14.16217778348464
0 FENGYUN 1C DEB
1 30275U 99025YL  13290.52451260  .00003141  00000-0  15798-2 0  6080
2 30275 098.9592 305.7919 0060104 091.9571 063.4512 14.16227887348718
0 FENGYUN 1C DEB
1 30275U 99025YL  13291.57823659  .00002738  00000-0  13801-2 0  6096
2 30275 098.9592 306.8519 0060076 088.9941 035.7583 14.16233520348868
0 FENGYUN 1C DEB
1 30275U 99025YL  13292.84979547  .00002787  00000-0  14041-2 0  6108
2 30275 098.9593 308.1312 0060074 085.4226 038.7008 14.16240351349047
0 FENGYUN 1C DEB
1 30275U 99025YL  13294.26426376  .00003202  00000-0  16096-2 0  6119
2 30275 098.9594 309.5540 0060018 081.4675 050.2757 14.16246094349240
0 FENGYUN 1C DEB
1 30275U 99025YL  13295.54010509  .00003518  00000-0  17663-2 0  6120
2 30275 098.9597 310.8375 0059947 077.8970 075.0994 14.16252862349428
